{
  "norad_id": 58942,
  "name": "STARLINK-31354",
  "history": [
    {
      "epoch": "2026-03-28T17:55:47.109792Z",
      "apogee_km": 475.73877446275765,
      "perigee_km": 474.7266688222662,
      "latitude_deg": -5.872706283082284e-05,
      "longitude_deg": 126.16368079943143,
      "height_km": 476.3281581775882,
      "semi_major_axis_km": 6853.369721642512,
      "eccentricity": 7.384e-05,
      "inclination_deg": 53.1596,
      "raan_deg": 221.2731,
      "arg_perigee_deg": 112.8632,
      "mean_anomaly_deg": 247.2446,
      "mean_motion_rev_day": 15.30194088
    },
    {
      "epoch": "2026-03-30T01:16:51.849696Z",
      "apogee_km": 475.75008610052737,
      "perigee_km": 474.8056855292607,
      "latitude_deg": 2.2736053628889433e-05,
      "longitude_deg": 8.53963954202952,
      "height_km": 476.04977367443877,
      "semi_major_axis_km": 6853.414885814894,
      "eccentricity": 6.89e-05,
      "inclination_deg": 53.1592,
      "raan_deg": 215.2063,
      "arg_perigee_deg": 74.4108,
      "mean_anomaly_deg": 285.6969,
      "mean_motion_rev_day": 15.30178962
    },
    {
      "epoch": "2026-03-30T01:16:51.850560Z",
      "apogee_km": 475.75008610052737,
      "perigee_km": 474.8056855292607,
      "latitude_deg": 2.2732486424994886e-05,
      "longitude_deg": 8.539635929517166,
      "height_km": 476.04977367493655,
      "semi_major_axis_km": 6853.414885814894,
      "eccentricity": 6.89e-05,
      "inclination_deg": 53.1592,
      "raan_deg": 215.2063,
      "arg_perigee_deg": 74.4108,
      "mean_anomaly_deg": 285.6969,
      "mean_motion_rev_day": 15.30178962
    },
    {
      "epoch": "2026-03-30T13:49:17.010048Z",
      "apogee_km": 475.73956928255575,
      "perigee_km": 474.76446909290644,
      "latitude_deg": -2.849721661151661e-05,
      "longitude_deg": 177.4888544357371,
      "height_km": 476.0807555734708,
      "semi_major_axis_km": 6853.389019187731,
      "eccentricity": 7.114e-05,
      "inclination_deg": 53.1584,
      "raan_deg": 212.7754,
      "arg_perigee_deg": 81.7546,
      "mean_anomaly_deg": 278.3535,
      "mean_motion_rev_day": 15.30187625
    },
    {
      "epoch": "2026-03-31T14:54:08.324352Z",
      "apogee_km": 476.09564749938636,
      "perigee_km": 474.43575336534104,
      "latitude_deg": -1.5195611987078682e-05,
      "longitude_deg": 155.3928192987457,
      "height_km": 475.82371093094577,
      "semi_major_axis_km": 6853.402700432363,
      "eccentricity": 0.0001211,
      "inclination_deg": 53.159,
      "raan_deg": 207.9232,
      "arg_perigee_deg": 65.8023,
      "mean_anomaly_deg": 294.3104,
      "mean_motion_rev_day": 15.30183043
    },
    {
      "epoch": "2026-04-01T14:24:56.507328Z",
      "apogee_km": 476.0690655936751,
      "perigee_km": 474.43521762231467,
      "latitude_deg": -3.975683102320096e-05,
      "longitude_deg": 157.17537949819405,
      "height_km": 475.8193113099377,
      "semi_major_axis_km": 6853.389141607994,
      "eccentricity": 0.0001192,
      "inclination_deg": 53.1596,
      "raan_deg": 203.3722,
      "arg_perigee_deg": 66.0889,
      "mean_anomaly_deg": 294.0236,
      "mean_motion_rev_day": 15.30187584
    },
    {
      "epoch": "2026-04-02T13:55:44.360256Z",
      "apogee_km": 475.8895770742092,
      "perigee_km": 474.6079939323208,
      "latitude_deg": -9.11870632845954e-07,
      "longitude_deg": 158.9589655282685,
      "height_km": 475.73799996787227,
      "semi_major_axis_km": 6853.385785503265,
      "eccentricity": 9.35e-05,
      "inclination_deg": 53.158,
      "raan_deg": 198.8208,
      "arg_perigee_deg": 50.2923,
      "mean_anomaly_deg": 309.816,
      "mean_motion_rev_day": 15.30188708
    },
    {
      "epoch": "2026-04-03T16:34:39.654336Z",
      "apogee_km": 476.26239521198204,
      "perigee_km": 474.44073795098393,
      "latitude_deg": -1.1642105167092599e-05,
      "longitude_deg": 112.97944284997325,
      "height_km": 476.10986573913044,
      "semi_major_axis_km": 6853.488566581483,
      "eccentricity": 0.0001329,
      "inclination_deg": 53.1591,
      "raan_deg": 193.6661,
      "arg_perigee_deg": 81.1833,
      "mean_anomaly_deg": 278.9318,
      "mean_motion_rev_day": 15.30154286
    },
    {
      "epoch": "2026-04-04T12:57:20.075616Z",
      "apogee_km": 476.1271475172143,
      "perigee_km": 474.2356316416899,
      "latitude_deg": 1.672444942667073e-05,
      "longitude_deg": 162.53125104687044,
      "height_km": 475.84349025888264,
      "semi_major_axis_km": 6853.318389579452,
      "eccentricity": 0.000138,
      "inclination_deg": 53.1589,
      "raan_deg": 189.7232,
      "arg_perigee_deg": 75.5643,
      "mean_anomaly_deg": 284.5511,
      "mean_motion_rev_day": 15.3021128
    },
    {
      "epoch": "2026-04-05T12:28:09.316128Z",
      "apogee_km": 476.2829542054051,
      "perigee_km": 474.24324526772125,
      "latitude_deg": -5.0655236031283963e-05,
      "longitude_deg": 164.3079582380262,
      "height_km": 475.9851113141964,
      "semi_major_axis_km": 6853.400099736563,
      "eccentricity": 0.00014881,
      "inclination_deg": 53.1591,
      "raan_deg": 185.1708,
      "arg_perigee_deg": 80.0796,
      "mean_anomaly_deg": 280.0372,
      "mean_motion_rev_day": 15.30183914
    },
    {
      "epoch": "2026-04-06T05:42:43.022016Z",
      "apogee_km": 476.24528702660973,
      "perigee_km": 474.09321179816925,
      "latitude_deg": 5.303780988437962e-06,
      "longitude_deg": -98.37617508571937,
      "height_km": 475.8509597663241,
      "semi_major_axis_km": 6853.30624941239,
      "eccentricity": 0.00015701,
      "inclination_deg": 53.1607,
      "raan_deg": 181.8352,
      "arg_perigee_deg": 78.4158,
      "mean_anomaly_deg": 281.7019,
      "mean_motion_rev_day": 15.30215346
    },
    {
      "epoch": "2026-04-07T11:29:44.422368Z",
      "apogee_km": 476.4128559023111,
      "perigee_km": 474.0838014322153,
      "latitude_deg": 5.087374843440885e-05,
      "longitude_deg": 167.87934675834595,
      "height_km": 476.0261021778679,
      "semi_major_axis_km": 6853.385328667263,
      "eccentricity": 0.00016992,
      "inclination_deg": 53.1602,
      "raan_deg": 176.0697,
      "arg_perigee_deg": 84.099,
      "mean_anomaly_deg": 276.0205,
      "mean_motion_rev_day": 15.30188861
    },
    {
      "epoch": "2026-04-08T11:00:31.744800Z",
      "apogee_km": 476.1494596819548,
      "perigee_km": 474.3009708252566,
      "latitude_deg": 3.147852277743012e-05,
      "longitude_deg": 169.66680200629673,
      "height_km": 475.89948707242127,
      "semi_major_axis_km": 6853.362215253605,
      "eccentricity": 0.00013486,
      "inclination_deg": 53.1609,
      "raan_deg": 171.52,
      "arg_perigee_deg": 75.984,
      "mean_anomaly_deg": 284.1311,
      "mean_motion_rev_day": 15.30196602
    }
  ]
}